{"type": "FeatureCollection", "features": [{"type": "Feature", "geometry": {"type": "Point", "coordinates": [137.02545, -71.44472]}, "properties": {"id": "TRF1-INI-000068A-01", "district_id": "TRF1-INI-000068A", "belt_id": null, "kind": "impact_melt_nickel", "name": "impact melt-sheet nickel\u2013copper\u2013PGE (Sudbury type)", "tonnage_mt": 309.9866, "grades": {"Ni %": 1.103, "Cu %": 1.8653, "Co %": 0.0283, "PGE g/t": 1.3062, "S %": 26.5946}, "depth_m": 4052, "blind": true, "strike_deg": 77, "dip_deg": 67, "length_m": 5955, "width_m": 367.1, "shape": "lens", "host": "flood_basalt", "chance": 0.15, "seen_by": {"gravity": false, "magnetics": false, "em": false, "geochemistry": false}, "water_depth_m": 0, "crater_id": "W-BAS-068"}}, {"type": "Feature", "geometry": {"type": "Point", "coordinates": [144.44253, -69.75069]}, "properties": {"id": "TRF1-INI-000068A-02", "district_id": "TRF1-INI-000068A", "belt_id": null, "kind": "impact_melt_nickel", "name": "impact melt-sheet nickel\u2013copper\u2013PGE (Sudbury type)", "tonnage_mt": 28.6821, "grades": {"Ni %": 1.125, "Cu %": 1.7351, "Co %": 0.052, "PGE g/t": 1.6998, "S %": 15.8742}, "depth_m": 4052, "blind": true, "strike_deg": 67, "dip_deg": 77, "length_m": 2388, "width_m": 238.9, "shape": "lens", "host": "flood_basalt", "chance": 0.15, "seen_by": {"gravity": false, "magnetics": false, "em": false, "geochemistry": false}, "water_depth_m": 0, "crater_id": "W-BAS-068"}}, {"type": "Feature", "geometry": {"type": "Point", "coordinates": [136.58993, -70.4389]}, "properties": {"id": "TRF1-INI-000068A-03", "district_id": "TRF1-INI-000068A", "belt_id": null, "kind": "impact_melt_nickel", "name": "impact melt-sheet nickel\u2013copper\u2013PGE (Sudbury type)", "tonnage_mt": 154.981, "grades": {"Ni %": 0.9317, "Cu %": 1.6402, "Co %": 0.0313, "PGE g/t": 1.9209, "S %": 17.5867}, "depth_m": 3955, "blind": true, "strike_deg": 36, "dip_deg": 48, "length_m": 1706, "width_m": 231.4, "shape": "lens", "host": "flood_basalt", "chance": 0.15, "seen_by": {"gravity": false, "magnetics": false, "em": false, "geochemistry": false}, "water_depth_m": 0, "crater_id": "W-BAS-068"}}, {"type": "Feature", "geometry": {"type": "Point", "coordinates": [136.03165, -71.04507]}, "properties": {"id": "TRF1-INI-000068A-04", "district_id": "TRF1-INI-000068A", "belt_id": null, "kind": "impact_melt_nickel", "name": "impact melt-sheet nickel\u2013copper\u2013PGE (Sudbury type)", "tonnage_mt": 22.7756, "grades": {"Ni %": 1.3946, "Cu %": 0.8854, "Co %": 0.0448, "PGE g/t": 2.4535, "S %": 31.1118}, "depth_m": 3978, "blind": true, "strike_deg": 59, "dip_deg": 68, "length_m": 2988, "width_m": 191.2, "shape": "lens", "host": "flood_basalt", "chance": 0.15, "seen_by": {"gravity": false, "magnetics": false, "em": false, "geochemistry": false}, "water_depth_m": 0, "crater_id": "W-BAS-068"}}, {"type": "Feature", "geometry": {"type": "Point", "coordinates": [140.0131, -69.12275]}, "properties": {"id": "TRF1-INI-000068A-05", "district_id": "TRF1-INI-000068A", "belt_id": null, "kind": "impact_melt_nickel", "name": "impact melt-sheet nickel\u2013copper\u2013PGE (Sudbury type)", "tonnage_mt": 7.0804, "grades": {"Ni %": 0.7617, "Cu %": 1.6652, "Co %": 0.0537, "PGE g/t": 2.599, "S %": 16.8023}, "depth_m": 3962, "blind": true, "strike_deg": 137, "dip_deg": 52, "length_m": 2345, "width_m": 306.5, "shape": "lens", "host": "flood_basalt", "chance": 0.15, "seen_by": {"gravity": false, "magnetics": false, "em": false, "geochemistry": false}, "water_depth_m": 0, "crater_id": "W-BAS-068"}}, {"type": "Feature", "geometry": {"type": "Point", "coordinates": [142.45094, -69.14307]}, "properties": {"id": "TRF1-INI-000068A-06", "district_id": "TRF1-INI-000068A", "belt_id": null, "kind": "impact_melt_nickel", "name": "impact melt-sheet nickel\u2013copper\u2013PGE (Sudbury type)", "tonnage_mt": 370.3663, "grades": {"Ni %": 1.0768, "Cu %": 1.1899, "Co %": 0.0207, "PGE g/t": 1.2933, "S %": 5.7296}, "depth_m": 3780, "blind": true, "strike_deg": 103, "dip_deg": 78, "length_m": 3556, "width_m": 408.6, "shape": "lens", "host": "flood_basalt", "chance": 0.15, "seen_by": {"gravity": false, "magnetics": false, "em": false, "geochemistry": false}, "water_depth_m": 0, "crater_id": "W-BAS-068"}}, {"type": "Feature", "geometry": {"type": "Point", "coordinates": [145.58697, -70.35487]}, "properties": {"id": "TRF1-INI-000068A-07", "district_id": "TRF1-INI-000068A", "belt_id": null, "kind": "impact_melt_nickel", "name": "impact melt-sheet nickel\u2013copper\u2013PGE (Sudbury type)", "tonnage_mt": 67.2796, "grades": {"Ni %": 1.5358, "Cu %": 0.889, "Co %": 0.0565, "PGE g/t": 0.9621, "S %": 13.4109}, "depth_m": 3988, "blind": true, "strike_deg": 41, "dip_deg": 56, "length_m": 1936, "width_m": 232.2, "shape": "lens", "host": "flood_basalt", "chance": 0.15, "seen_by": {"gravity": false, "magnetics": false, "em": false, "geochemistry": false}, "water_depth_m": 0, "crater_id": "W-BAS-068"}}, {"type": "Feature", "geometry": {"type": "Point", "coordinates": [142.25243, -71.61458]}, "properties": {"id": "TRF1-INI-000068A-08", "district_id": "TRF1-INI-000068A", "belt_id": null, "kind": "impact_melt_nickel", "name": "impact melt-sheet nickel\u2013copper\u2013PGE (Sudbury type)", "tonnage_mt": 18.0392, "grades": {"Ni %": 1.2229, "Cu %": 1.3895, "Co %": 0.0389, "PGE g/t": 1.5017, "S %": 5.9668}, "depth_m": 3962, "blind": true, "strike_deg": 153, "dip_deg": 63, "length_m": 4326, "width_m": 222.8, "shape": "lens", "host": "flood_basalt", "chance": 0.15, "seen_by": {"gravity": false, "magnetics": false, "em": false, "geochemistry": false}, "water_depth_m": 0, "crater_id": "W-BAS-068"}}, {"type": "Feature", "geometry": {"type": "Point", "coordinates": [138.30953, -69.40708]}, "properties": {"id": "TRF1-INI-000068A-09", "district_id": "TRF1-INI-000068A", "belt_id": null, "kind": "impact_melt_nickel", "name": "impact melt-sheet nickel\u2013copper\u2013PGE (Sudbury type)", "tonnage_mt": 29.0445, "grades": {"Ni %": 2.9021, "Cu %": 2.0166, "Co %": 0.0504, "PGE g/t": 1.6987, "S %": 7.3806}, "depth_m": 3950, "blind": true, "strike_deg": 164, "dip_deg": 58, "length_m": 3171, "width_m": 133.0, "shape": "lens", "host": "flood_basalt", "chance": 0.15, "seen_by": {"gravity": false, "magnetics": false, "em": false, "geochemistry": false}, "water_depth_m": 0, "crater_id": "W-BAS-068"}}, {"type": "Feature", "geometry": {"type": "Point", "coordinates": [144.47267, -71.0424]}, "properties": {"id": "TRF1-INI-000068A-10", "district_id": "TRF1-INI-000068A", "belt_id": null, "kind": "impact_melt_nickel", "name": "impact melt-sheet nickel\u2013copper\u2013PGE (Sudbury type)", "tonnage_mt": 34.6172, "grades": {"Ni %": 1.6493, "Cu %": 1.3765, "Co %": 0.0461, "PGE g/t": 2.4605, "S %": 23.1489}, "depth_m": 4025, "blind": true, "strike_deg": 14, "dip_deg": 60, "length_m": 1898, "width_m": 169.6, "shape": "lens", "host": "flood_basalt", "chance": 0.15, "seen_by": {"gravity": false, "magnetics": false, "em": false, "geochemistry": false}, "water_depth_m": 0, "crater_id": "W-BAS-068"}}, {"type": "Feature", "geometry": {"type": "Point", "coordinates": [136.46224, -71.46141]}, "properties": {"id": "TRF1-INI-000068A-11", "district_id": "TRF1-INI-000068A", "belt_id": null, "kind": "impact_melt_nickel", "name": "impact melt-sheet nickel\u2013copper\u2013PGE (Sudbury type)", "tonnage_mt": 25.4309, "grades": {"Ni %": 1.931, "Cu %": 1.4065, "Co %": 0.0615, "PGE g/t": 1.6149, "S %": 4.1618}, "depth_m": 4071, "blind": true, "strike_deg": 74, "dip_deg": 54, "length_m": 4215, "width_m": 283.2, "shape": "lens", "host": "flood_basalt", "chance": 0.15, "seen_by": {"gravity": false, "magnetics": false, "em": false, "geochemistry": false}, "water_depth_m": 0, "crater_id": "W-BAS-068"}}, {"type": "Feature", "geometry": {"type": "Point", "coordinates": [-132.18576, 8.03233]}, "properties": {"id": "TRF1-INI-000072A-01", "district_id": "TRF1-INI-000072A", "belt_id": null, "kind": "impact_melt_nickel", "name": "impact melt-sheet nickel\u2013copper\u2013PGE (Sudbury type)", "tonnage_mt": 62.9671, "grades": {"Ni %": 1.1219, "Cu %": 0.7824, "Co %": 0.056, "PGE g/t": 1.7123, "S %": 13.6152}, "depth_m": 2311, "blind": true, "strike_deg": 68, "dip_deg": 73, "length_m": 3465, "width_m": 233.5, "shape": "lens", "host": "intercrater_plains", "chance": 0.15, "seen_by": {"gravity": false, "magnetics": false, "em": false, "geochemistry": false}, "water_depth_m": 0, "crater_id": "TRF1-IMP-00072"}}, {"type": "Feature", "geometry": {"type": "Point", "coordinates": [-132.40727, 9.06463]}, "properties": {"id": "TRF1-INI-000072A-02", "district_id": "TRF1-INI-000072A", "belt_id": null, "kind": "impact_melt_nickel", "name": "impact melt-sheet nickel\u2013copper\u2013PGE (Sudbury type)", "tonnage_mt": 83.1792, "grades": {"Ni %": 1.4881, "Cu %": 0.5682, "Co %": 0.0453, "PGE g/t": 1.0497, "S %": 5.2807}, "depth_m": 2177, "blind": true, "strike_deg": 146, "dip_deg": 56, "length_m": 4228, "width_m": 163.3, "shape": "lens", "host": "intercrater_plains", "chance": 0.15, "seen_by": {"gravity": false, "magnetics": false, "em": false, "geochemistry": false}, "water_depth_m": 0, "crater_id": "TRF1-IMP-00072"}}, {"type": "Feature", "geometry": {"type": "Point", "coordinates": [-132.29709, 8.76354]}, "properties": {"id": "TRF1-INI-000072A-03", "district_id": "TRF1-INI-000072A", "belt_id": null, "kind": "impact_melt_nickel", "name": "impact melt-sheet nickel\u2013copper\u2013PGE (Sudbury type)", "tonnage_mt": 360.0563, "grades": {"Ni %": 2.178, "Cu %": 1.1504, "Co %": 0.046, "PGE g/t": 1.4391, "S %": 14.3608}, "depth_m": 2326, "blind": true, "strike_deg": 125, "dip_deg": 61, "length_m": 3539, "width_m": 212.5, "shape": "lens", "host": "intercrater_plains", "chance": 0.15, "seen_by": {"gravity": false, "magnetics": false, "em": false, "geochemistry": false}, "water_depth_m": 0, "crater_id": "TRF1-IMP-00072"}}, {"type": "Feature", "geometry": {"type": "Point", "coordinates": [-132.98695, 9.1921]}, "properties": {"id": "TRF1-INI-000072A-04", "district_id": "TRF1-INI-000072A", "belt_id": null, "kind": "impact_melt_nickel", "name": "impact melt-sheet nickel\u2013copper\u2013PGE (Sudbury type)", "tonnage_mt": 209.9022, "grades": {"Ni %": 1.2688, "Cu %": 1.3749, "Co %": 0.0515, "PGE g/t": 2.1007, "S %": 20.4265}, "depth_m": 2268, "blind": true, "strike_deg": 5, "dip_deg": 75, "length_m": 2445, "width_m": 173.8, "shape": "lens", "host": "intercrater_plains", "chance": 0.15, "seen_by": {"gravity": false, "magnetics": false, "em": false, "geochemistry": false}, "water_depth_m": 0, "crater_id": "TRF1-IMP-00072"}}, {"type": "Feature", "geometry": {"type": "Point", "coordinates": [-132.93311, 7.4132]}, "properties": {"id": "TRF1-INI-000072A-05", "district_id": "TRF1-INI-000072A", "belt_id": null, "kind": "impact_melt_nickel", "name": "impact melt-sheet nickel\u2013copper\u2013PGE (Sudbury type)", "tonnage_mt": 254.3146, "grades": {"Ni %": 3.4014, "Cu %": 0.7408, "Co %": 0.0659, "PGE g/t": 2.041, "S %": 4.5201}, "depth_m": 2279, "blind": true, "strike_deg": 179, "dip_deg": 36, "length_m": 1957, "width_m": 134.2, "shape": "lens", "host": "intercrater_plains", "chance": 0.15, "seen_by": {"gravity": false, "magnetics": false, "em": false, "geochemistry": false}, "water_depth_m": 0, "crater_id": "TRF1-IMP-00072"}}, {"type": "Feature", "geometry": {"type": "Point", "coordinates": [-132.15848, 8.8487]}, "properties": {"id": "TRF1-INI-000072A-06", "district_id": "TRF1-INI-000072A", "belt_id": null, "kind": "impact_melt_nickel", "name": "impact melt-sheet nickel\u2013copper\u2013PGE (Sudbury type)", "tonnage_mt": 74.6586, "grades": {"Ni %": 1.785, "Cu %": 1.1727, "Co %": 0.0283, "PGE g/t": 1.1944, "S %": 21.7338}, "depth_m": 2171, "blind": true, "strike_deg": 125, "dip_deg": 65, "length_m": 3502, "width_m": 144.1, "shape": "lens", "host": "intercrater_plains", "chance": 0.15, "seen_by": {"gravity": false, "magnetics": false, "em": false, "geochemistry": false}, "water_depth_m": 0, "crater_id": "TRF1-IMP-00072"}}, {"type": "Feature", "geometry": {"type": "Point", "coordinates": [-133.33404, 7.7422]}, "properties": {"id": "TRF1-INI-000072A-07", "district_id": "TRF1-INI-000072A", "belt_id": null, "kind": "impact_melt_nickel", "name": "impact melt-sheet nickel\u2013copper\u2013PGE (Sudbury type)", "tonnage_mt": 82.8732, "grades": {"Ni %": 1.7554, "Cu %": 1.0847, "Co %": 0.0213, "PGE g/t": 2.2952, "S %": 20.476}, "depth_m": 2332, "blind": true, "strike_deg": 145, "dip_deg": 56, "length_m": 1639, "width_m": 141.5, "shape": "lens", "host": "intercrater_plains", "chance": 0.15, "seen_by": {"gravity": false, "magnetics": false, "em": false, "geochemistry": false}, "water_depth_m": 0, "crater_id": "TRF1-IMP-00072"}}, {"type": "Feature", "geometry": {"type": "Point", "coordinates": [-133.50148, 8.81571]}, "properties": {"id": "TRF1-INI-000072A-08", "district_id": "TRF1-INI-000072A", "belt_id": null, "kind": "impact_melt_nickel", "name": "impact melt-sheet nickel\u2013copper\u2013PGE (Sudbury type)", "tonnage_mt": 28.7036, "grades": {"Ni %": 0.9819, "Cu %": 1.5756, "Co %": 0.0504, "PGE g/t": 2.3765, "S %": 6.3694}, "depth_m": 2134, "blind": true, "strike_deg": 50, "dip_deg": 54, "length_m": 2280, "width_m": 139.3, "shape": "lens", "host": "intercrater_plains", "chance": 0.15, "seen_by": {"gravity": false, "magnetics": false, "em": false, "geochemistry": false}, "water_depth_m": 0, "crater_id": "TRF1-IMP-00072"}}, {"type": "Feature", "geometry": {"type": "Point", "coordinates": [-132.66452, 7.68074]}, "properties": {"id": "TRF1-INI-000072A-09", "district_id": "TRF1-INI-000072A", "belt_id": null, "kind": "impact_melt_nickel", "name": "impact melt-sheet nickel\u2013copper\u2013PGE (Sudbury type)", "tonnage_mt": 24.1539, "grades": {"Ni %": 1.0104, "Cu %": 0.6802, "Co %": 0.0141, "PGE g/t": 2.0517, "S %": 14.0923}, "depth_m": 2156, "blind": true, "strike_deg": 21, "dip_deg": 42, "length_m": 3138, "width_m": 161.1, "shape": "lens", "host": "intercrater_plains", "chance": 0.15, "seen_by": {"gravity": false, "magnetics": false, "em": false, "geochemistry": false}, "water_depth_m": 0, "crater_id": "TRF1-IMP-00072"}}, {"type": "Feature", "geometry": {"type": "Point", "coordinates": [-132.14493, 8.4942]}, "properties": {"id": "TRF1-INI-000072A-10", "district_id": "TRF1-INI-000072A", "belt_id": null, "kind": "impact_melt_nickel", "name": "impact melt-sheet nickel\u2013copper\u2013PGE (Sudbury type)", "tonnage_mt": 96.3908, "grades": {"Ni %": 0.6903, "Cu %": 0.6052, "Co %": 0.1037, "PGE g/t": 2.3358, "S %": 9.0114}, "depth_m": 2226, "blind": true, "strike_deg": 102, "dip_deg": 56, "length_m": 2319, "width_m": 327.1, "shape": "lens", "host": "intercrater_plains", "chance": 0.15, "seen_by": {"gravity": false, "magnetics": false, "em": false, "geochemistry": false}, "water_depth_m": 0, "crater_id": "TRF1-IMP-00072"}}, {"type": "Feature", "geometry": {"type": "Point", "coordinates": [-132.54752, 9.16825]}, "properties": {"id": "TRF1-INI-000072A-11", "district_id": "TRF1-INI-000072A", "belt_id": null, "kind": "impact_melt_nickel", "name": "impact melt-sheet nickel\u2013copper\u2013PGE (Sudbury type)", "tonnage_mt": 26.743, "grades": {"Ni %": 1.2581, "Cu %": 1.1215, "Co %": 0.022, "PGE g/t": 0.7776, "S %": 13.6632}, "depth_m": 2282, "blind": true, "strike_deg": 157, "dip_deg": 45, "length_m": 6430, "width_m": 160.9, "shape": "lens", "host": "intercrater_plains", "chance": 0.15, "seen_by": {"gravity": false, "magnetics": false, "em": false, "geochemistry": false}, "water_depth_m": 0, "crater_id": "TRF1-IMP-00072"}}, {"type": "Feature", "geometry": {"type": "Point", "coordinates": [-133.32316, 9.1252]}, "properties": {"id": "TRF1-INI-000072A-12", "district_id": "TRF1-INI-000072A", "belt_id": null, "kind": "impact_melt_nickel", "name": "impact melt-sheet nickel\u2013copper\u2013PGE (Sudbury type)", "tonnage_mt": 11.7328, "grades": {"Ni %": 1.3204, "Cu %": 0.8785, "Co %": 0.0682, "PGE g/t": 1.3087, "S %": 14.7134}, "depth_m": 2428, "blind": true, "strike_deg": 27, "dip_deg": 48, "length_m": 2296, "width_m": 248.6, "shape": "lens", "host": "intercrater_plains", "chance": 0.15, "seen_by": {"gravity": false, "magnetics": false, "em": false, "geochemistry": false}, "water_depth_m": 0, "crater_id": "TRF1-IMP-00072"}}, {"type": "Feature", "geometry": {"type": "Point", "coordinates": [-132.14728, 7.82417]}, "properties": {"id": "TRF1-INI-000072A-13", "district_id": "TRF1-INI-000072A", "belt_id": null, "kind": "impact_melt_nickel", "name": "impact melt-sheet nickel\u2013copper\u2013PGE (Sudbury type)", "tonnage_mt": 19.4239, "grades": {"Ni %": 0.797, "Cu %": 0.8434, "Co %": 0.0448, "PGE g/t": 0.9642, "S %": 16.3732}, "depth_m": 1863, "blind": true, "strike_deg": 56, "dip_deg": 35, "length_m": 2682, "width_m": 158.7, "shape": "lens", "host": "intercrater_plains", "chance": 0.15, "seen_by": {"gravity": false, "magnetics": false, "em": false, "geochemistry": false}, "water_depth_m": 0, "crater_id": "TRF1-IMP-00072"}}, {"type": "Feature", "geometry": {"type": "Point", "coordinates": [-139.85406, 35.04478]}, "properties": {"id": "TRF1-INI-000143A-01", "district_id": "TRF1-INI-000143A", "belt_id": null, "kind": "impact_melt_nickel", "name": "impact melt-sheet nickel\u2013copper\u2013PGE (Sudbury type)", "tonnage_mt": 163.0299, "grades": {"Ni %": 1.0563, "Cu %": 0.8567, "Co %": 0.0507, "PGE g/t": 1.1668, "S %": 5.8643}, "depth_m": 1832, "blind": true, "strike_deg": 89, "dip_deg": 35, "length_m": 3597, "width_m": 200.8, "shape": "lens", "host": "primary_crust", "chance": 0.15, "seen_by": {"gravity": false, "magnetics": false, "em": false, "geochemistry": false}, "water_depth_m": 0, "crater_id": "TRF1-IMP-00143"}}, {"type": "Feature", "geometry": {"type": "Point", "coordinates": [-141.47394, 35.03044]}, "properties": {"id": "TRF1-INI-000143A-02", "district_id": "TRF1-INI-000143A", "belt_id": null, "kind": "impact_melt_nickel", "name": "impact melt-sheet nickel\u2013copper\u2013PGE (Sudbury type)", "tonnage_mt": 4.9706, "grades": {"Ni %": 0.7918, "Cu %": 0.8841, "Co %": 0.0389, "PGE g/t": 2.5816, "S %": 9.3109}, "depth_m": 2018, "blind": true, "strike_deg": 92, "dip_deg": 55, "length_m": 3078, "width_m": 169.8, "shape": "lens", "host": "primary_crust", "chance": 0.15, "seen_by": {"gravity": false, "magnetics": false, "em": false, "geochemistry": false}, "water_depth_m": 0, "crater_id": "TRF1-IMP-00143"}}, {"type": "Feature", "geometry": {"type": "Point", "coordinates": [-140.50029, 35.77193]}, "properties": {"id": "TRF1-INI-000143A-03", "district_id": "TRF1-INI-000143A", "belt_id": null, "kind": "impact_melt_nickel", "name": "impact melt-sheet nickel\u2013copper\u2013PGE (Sudbury type)", "tonnage_mt": 22.1224, "grades": {"Ni %": 0.7313, "Cu %": 0.4061, "Co %": 0.0231, "PGE g/t": 0.5112, "S %": 31.3165}, "depth_m": 1800, "blind": true, "strike_deg": 167, "dip_deg": 43, "length_m": 6816, "width_m": 123.5, "shape": "lens", "host": "primary_crust", "chance": 0.15, "seen_by": {"gravity": false, "magnetics": false, "em": false, "geochemistry": false}, "water_depth_m": 0, "crater_id": "TRF1-IMP-00143"}}, {"type": "Feature", "geometry": {"type": "Point", "coordinates": [-140.89426, 34.51968]}, "properties": {"id": "TRF1-INI-000143A-04", "district_id": "TRF1-INI-000143A", "belt_id": null, "kind": "impact_melt_nickel", "name": "impact melt-sheet nickel\u2013copper\u2013PGE (Sudbury type)", "tonnage_mt": 26.834, "grades": {"Ni %": 1.3385, "Cu %": 0.7189, "Co %": 0.1096, "PGE g/t": 0.6371, "S %": 10.3548}, "depth_m": 1933, "blind": true, "strike_deg": 164, "dip_deg": 50, "length_m": 4223, "width_m": 256.7, "shape": "lens", "host": "primary_crust", "chance": 0.15, "seen_by": {"gravity": false, "magnetics": false, "em": false, "geochemistry": false}, "water_depth_m": 0, "crater_id": "TRF1-IMP-00143"}}, {"type": "Feature", "geometry": {"type": "Point", "coordinates": [-141.12167, 34.56446]}, "properties": {"id": "TRF1-INI-000143A-05", "district_id": "TRF1-INI-000143A", "belt_id": null, "kind": "impact_melt_nickel", "name": "impact melt-sheet nickel\u2013copper\u2013PGE (Sudbury type)", "tonnage_mt": 20.4965, "grades": {"Ni %": 0.6932, "Cu %": 2.3664, "Co %": 0.0473, "PGE g/t": 1.7809, "S %": 18.9605}, "depth_m": 2074, "blind": true, "strike_deg": 145, "dip_deg": 69, "length_m": 4900, "width_m": 123.6, "shape": "lens", "host": "primary_crust", "chance": 0.15, "seen_by": {"gravity": false, "magnetics": false, "em": false, "geochemistry": false}, "water_depth_m": 0, "crater_id": "TRF1-IMP-00143"}}, {"type": "Feature", "geometry": {"type": "Point", "coordinates": [-141.43114, 35.38918]}, "properties": {"id": "TRF1-INI-000143A-06", "district_id": "TRF1-INI-000143A", "belt_id": null, "kind": "impact_melt_nickel", "name": "impact melt-sheet nickel\u2013copper\u2013PGE (Sudbury type)", "tonnage_mt": 15.3247, "grades": {"Ni %": 1.1635, "Cu %": 1.2231, "Co %": 0.0236, "PGE g/t": 0.6868, "S %": 11.411}, "depth_m": 2201, "blind": true, "strike_deg": 60, "dip_deg": 77, "length_m": 1711, "width_m": 241.8, "shape": "lens", "host": "primary_crust", "chance": 0.15, "seen_by": {"gravity": false, "magnetics": false, "em": false, "geochemistry": false}, "water_depth_m": 0, "crater_id": "TRF1-IMP-00143"}}, {"type": "Feature", "geometry": {"type": "Point", "coordinates": [-140.84422, 35.62585]}, "properties": {"id": "TRF1-INI-000143A-07", "district_id": "TRF1-INI-000143A", "belt_id": null, "kind": "impact_melt_nickel", "name": "impact melt-sheet nickel\u2013copper\u2013PGE (Sudbury type)", "tonnage_mt": 171.5519, "grades": {"Ni %": 1.2223, "Cu %": 0.9631, "Co %": 0.0697, "PGE g/t": 1.4489, "S %": 10.5304}, "depth_m": 2102, "blind": true, "strike_deg": 11, "dip_deg": 53, "length_m": 7769, "width_m": 211.9, "shape": "lens", "host": "primary_crust", "chance": 0.15, "seen_by": {"gravity": false, "magnetics": false, "em": false, "geochemistry": false}, "water_depth_m": 0, "crater_id": "TRF1-IMP-00143"}}, {"type": "Feature", "geometry": {"type": "Point", "coordinates": [-140.07354, 35.42304]}, "properties": {"id": "TRF1-INI-000143A-08", "district_id": "TRF1-INI-000143A", "belt_id": null, "kind": "impact_melt_nickel", "name": "impact melt-sheet nickel\u2013copper\u2013PGE (Sudbury type)", "tonnage_mt": 56.4281, "grades": {"Ni %": 1.2511, "Cu %": 2.2281, "Co %": 0.0428, "PGE g/t": 2.6544, "S %": 14.3617}, "depth_m": 1860, "blind": true, "strike_deg": 126, "dip_deg": 54, "length_m": 2677, "width_m": 146.4, "shape": "lens", "host": "primary_crust", "chance": 0.15, "seen_by": {"gravity": false, "magnetics": false, "em": false, "geochemistry": false}, "water_depth_m": 0, "crater_id": "TRF1-IMP-00143"}}, {"type": "Feature", "geometry": {"type": "Point", "coordinates": [-139.88976, 35.42872]}, "properties": {"id": "TRF1-INI-000143A-09", "district_id": "TRF1-INI-000143A", "belt_id": null, "kind": "impact_melt_nickel", "name": "impact melt-sheet nickel\u2013copper\u2013PGE (Sudbury type)", "tonnage_mt": 159.3197, "grades": {"Ni %": 2.9176, "Cu %": 0.4731, "Co %": 0.0576, "PGE g/t": 0.9595, "S %": 7.6508}, "depth_m": 1764, "blind": true, "strike_deg": 120, "dip_deg": 51, "length_m": 3626, "width_m": 292.3, "shape": "lens", "host": "primary_crust", "chance": 0.15, "seen_by": {"gravity": false, "magnetics": false, "em": false, "geochemistry": false}, "water_depth_m": 0, "crater_id": "TRF1-IMP-00143"}}, {"type": "Feature", "geometry": {"type": "Point", "coordinates": [-139.87382, 34.86012]}, "properties": {"id": "TRF1-INI-000143A-10", "district_id": "TRF1-INI-000143A", "belt_id": null, "kind": "impact_melt_nickel", "name": "impact melt-sheet nickel\u2013copper\u2013PGE (Sudbury type)", "tonnage_mt": 21.1652, "grades": {"Ni %": 1.242, "Cu %": 0.8295, "Co %": 0.0346, "PGE g/t": 0.6363, "S %": 11.6605}, "depth_m": 1954, "blind": true, "strike_deg": 74, "dip_deg": 53, "length_m": 1925, "width_m": 219.2, "shape": "lens", "host": "primary_crust", "chance": 0.15, "seen_by": {"gravity": false, "magnetics": false, "em": false, "geochemistry": false}, "water_depth_m": 0, "crater_id": "TRF1-IMP-00143"}}, {"type": "Feature", "geometry": {"type": "Point", "coordinates": [-140.18165, 34.61637]}, "properties": {"id": "TRF1-INI-000143A-11", "district_id": "TRF1-INI-000143A", "belt_id": null, "kind": "impact_melt_nickel", "name": "impact melt-sheet nickel\u2013copper\u2013PGE (Sudbury type)", "tonnage_mt": 32.8407, "grades": {"Ni %": 0.7888, "Cu %": 0.4803, "Co %": 0.0476, "PGE g/t": 1.163, "S %": 12.2938}, "depth_m": 1860, "blind": true, "strike_deg": 45, "dip_deg": 53, "length_m": 1905, "width_m": 249.5, "shape": "lens", "host": "primary_crust", "chance": 0.15, "seen_by": {"gravity": false, "magnetics": false, "em": false, "geochemistry": false}, "water_depth_m": 0, "crater_id": "TRF1-IMP-00143"}}, {"type": "Feature", "geometry": {"type": "Point", "coordinates": [-140.19832, 35.58711]}, "properties": {"id": "TRF1-INI-000143A-12", "district_id": "TRF1-INI-000143A", "belt_id": null, "kind": "impact_melt_nickel", "name": "impact melt-sheet nickel\u2013copper\u2013PGE (Sudbury type)", "tonnage_mt": 70.1252, "grades": {"Ni %": 1.3485, "Cu %": 1.6928, "Co %": 0.0435, "PGE g/t": 2.5715, "S %": 9.9221}, "depth_m": 2125, "blind": true, "strike_deg": 142, "dip_deg": 62, "length_m": 3106, "width_m": 222.1, "shape": "lens", "host": "primary_crust", "chance": 0.15, "seen_by": {"gravity": false, "magnetics": false, "em": false, "geochemistry": false}, "water_depth_m": 0, "crater_id": "TRF1-IMP-00143"}}, {"type": "Feature", "geometry": {"type": "Point", "coordinates": [-141.0121, 35.79229]}, "properties": {"id": "TRF1-INI-000143A-13", "district_id": "TRF1-INI-000143A", "belt_id": null, "kind": "impact_melt_nickel", "name": "impact melt-sheet nickel\u2013copper\u2013PGE (Sudbury type)", "tonnage_mt": 35.879, "grades": {"Ni %": 1.9629, "Cu %": 1.3422, "Co %": 0.0336, "PGE g/t": 2.34, "S %": 10.3947}, "depth_m": 2073, "blind": true, "strike_deg": 19, "dip_deg": 58, "length_m": 2956, "width_m": 248.5, "shape": "lens", "host": "primary_crust", "chance": 0.15, "seen_by": {"gravity": false, "magnetics": false, "em": false, "geochemistry": false}, "water_depth_m": 0, "crater_id": "TRF1-IMP-00143"}}, {"type": "Feature", "geometry": {"type": "Point", "coordinates": [-140.7273, 34.35655]}, "properties": {"id": "TRF1-INI-000143A-14", "district_id": "TRF1-INI-000143A", "belt_id": null, "kind": "impact_melt_nickel", "name": "impact melt-sheet nickel\u2013copper\u2013PGE (Sudbury type)", "tonnage_mt": 95.0063, "grades": {"Ni %": 1.0713, "Cu %": 1.028, "Co %": 0.0378, "PGE g/t": 1.3061, "S %": 11.3009}, "depth_m": 1836, "blind": true, "strike_deg": 178, "dip_deg": 61, "length_m": 3976, "width_m": 149.0, "shape": "lens", "host": "primary_crust", "chance": 0.15, "seen_by": {"gravity": false, "magnetics": false, "em": false, "geochemistry": false}, "water_depth_m": 0, "crater_id": "TRF1-IMP-00143"}}, {"type": "Feature", "geometry": {"type": "Point", "coordinates": [-140.40176, 34.3772]}, "properties": {"id": "TRF1-INI-000143A-15", "district_id": "TRF1-INI-000143A", "belt_id": null, "kind": "impact_melt_nickel", "name": "impact melt-sheet nickel\u2013copper\u2013PGE (Sudbury type)", "tonnage_mt": 93.1228, "grades": {"Ni %": 3.8882, "Cu %": 1.9001, "Co %": 0.0338, "PGE g/t": 2.0176, "S %": 17.9803}, "depth_m": 1794, "blind": true, "strike_deg": 20, "dip_deg": 32, "length_m": 3901, "width_m": 143.6, "shape": "lens", "host": "primary_crust", "chance": 0.15, "seen_by": {"gravity": false, "magnetics": false, "em": false, "geochemistry": false}, "water_depth_m": 0, "crater_id": "TRF1-IMP-00143"}}, {"type": "Feature", "geometry": {"type": "Point", "coordinates": [-140.49939, 35.73123]}, "properties": {"id": "TRF1-INI-000143A-16", "district_id": "TRF1-INI-000143A", "belt_id": null, "kind": "impact_melt_nickel", "name": "impact melt-sheet nickel\u2013copper\u2013PGE (Sudbury type)", "tonnage_mt": 5.7735, "grades": {"Ni %": 1.8227, "Cu %": 1.4515, "Co %": 0.0384, "PGE g/t": 1.1271, "S %": 14.3849}, "depth_m": 1915, "blind": true, "strike_deg": 166, "dip_deg": 55, "length_m": 3446, "width_m": 173.4, "shape": "lens", "host": "primary_crust", "chance": 0.15, "seen_by": {"gravity": false, "magnetics": false, "em": false, "geochemistry": false}, "water_depth_m": 0, "crater_id": "TRF1-IMP-00143"}}, {"type": "Feature", "geometry": {"type": "Point", "coordinates": [-140.57586, 35.76376]}, "properties": {"id": "TRF1-INI-000143A-17", "district_id": "TRF1-INI-000143A", "belt_id": null, "kind": "impact_melt_nickel", "name": "impact melt-sheet nickel\u2013copper\u2013PGE (Sudbury type)", "tonnage_mt": 352.0222, "grades": {"Ni %": 0.7478, "Cu %": 0.8068, "Co %": 0.0643, "PGE g/t": 0.49, "S %": 8.4161}, "depth_m": 2061, "blind": true, "strike_deg": 172, "dip_deg": 40, "length_m": 2260, "width_m": 311.4, "shape": "lens", "host": "primary_crust", "chance": 0.15, "seen_by": {"gravity": false, "magnetics": false, "em": false, "geochemistry": false}, "water_depth_m": 0, "crater_id": "TRF1-IMP-00143"}}, {"type": "Feature", "geometry": {"type": "Point", "coordinates": [-139.79748, 35.08559]}, "properties": {"id": "TRF1-INI-000143A-18", "district_id": "TRF1-INI-000143A", "belt_id": null, "kind": "impact_melt_nickel", "name": "impact melt-sheet nickel\u2013copper\u2013PGE (Sudbury type)", "tonnage_mt": 80.3253, "grades": {"Ni %": 0.6344, "Cu %": 0.7987, "Co %": 0.0716, "PGE g/t": 1.4803, "S %": 23.793}, "depth_m": 1753, "blind": true, "strike_deg": 93, "dip_deg": 47, "length_m": 3349, "width_m": 116.1, "shape": "lens", "host": "primary_crust", "chance": 0.15, "seen_by": {"gravity": false, "magnetics": false, "em": false, "geochemistry": false}, "water_depth_m": 0, "crater_id": "TRF1-IMP-00143"}}, {"type": "Feature", "geometry": {"type": "Point", "coordinates": [-140.84457, 34.38642]}, "properties": {"id": "TRF1-INI-000143A-19", "district_id": "TRF1-INI-000143A", "belt_id": null, "kind": "impact_melt_nickel", "name": "impact melt-sheet nickel\u2013copper\u2013PGE (Sudbury type)", "tonnage_mt": 187.8654, "grades": {"Ni %": 1.6306, "Cu %": 2.2734, "Co %": 0.0583, "PGE g/t": 1.1766, "S %": 12.9318}, "depth_m": 1735, "blind": true, "strike_deg": 170, "dip_deg": 63, "length_m": 3665, "width_m": 452.8, "shape": "lens", "host": "primary_crust", "chance": 0.15, "seen_by": {"gravity": false, "magnetics": false, "em": false, "geochemistry": false}, "water_depth_m": 0, "crater_id": "TRF1-IMP-00143"}}, {"type": "Feature", "geometry": {"type": "Point", "coordinates": [-136.14147, -24.7849]}, "properties": {"id": "TRF1-INI-000205A-01", "district_id": "TRF1-INI-000205A", "belt_id": null, "kind": "impact_melt_nickel", "name": "impact melt-sheet nickel\u2013copper\u2013PGE (Sudbury type)", "tonnage_mt": 395.0191, "grades": {"Ni %": 1.9179, "Cu %": 0.9854, "Co %": 0.0424, "PGE g/t": 1.9795, "S %": 15.2857}, "depth_m": 1656, "blind": true, "strike_deg": 118, "dip_deg": 79, "length_m": 3366, "width_m": 191.7, "shape": "lens", "host": "primary_crust", "chance": 0.15, "seen_by": {"gravity": false, "magnetics": false, "em": false, "geochemistry": false}, "water_depth_m": 0, "crater_id": "TRF1-IMP-00205"}}, {"type": "Feature", "geometry": {"type": "Point", "coordinates": [-136.87509, -25.76143]}, "properties": {"id": "TRF1-INI-000205A-02", "district_id": "TRF1-INI-000205A", "belt_id": null, "kind": "impact_melt_nickel", "name": "impact melt-sheet nickel\u2013copper\u2013PGE (Sudbury type)", "tonnage_mt": 31.133, "grades": {"Ni %": 0.538, "Cu %": 1.6795, "Co %": 0.0506, "PGE g/t": 1.1094, "S %": 16.1341}, "depth_m": 1616, "blind": true, "strike_deg": 170, "dip_deg": 59, "length_m": 3361, "width_m": 145.0, "shape": "lens", "host": "primary_crust", "chance": 0.15, "seen_by": {"gravity": false, "magnetics": false, "em": false, "geochemistry": false}, "water_depth_m": 0, "crater_id": "TRF1-IMP-00205"}}, {"type": "Feature", "geometry": {"type": "Point", "coordinates": [-136.36881, -24.613]}, "properties": {"id": "TRF1-INI-000205A-03", "district_id": "TRF1-INI-000205A", "belt_id": null, "kind": "impact_melt_nickel", "name": "impact melt-sheet nickel\u2013copper\u2013PGE (Sudbury type)", "tonnage_mt": 113.3164, "grades": {"Ni %": 0.6321, "Cu %": 1.0763, "Co %": 0.0404, "PGE g/t": 1.4285, "S %": 9.5989}, "depth_m": 1645, "blind": true, "strike_deg": 144, "dip_deg": 35, "length_m": 2626, "width_m": 144.8, "shape": "lens", "host": "primary_crust", "chance": 0.15, "seen_by": {"gravity": false, "magnetics": false, "em": false, "geochemistry": false}, "water_depth_m": 0, "crater_id": "TRF1-IMP-00205"}}, {"type": "Feature", "geometry": {"type": "Point", "coordinates": [-137.47276, -24.77457]}, "properties": {"id": "TRF1-INI-000205A-04", "district_id": "TRF1-INI-000205A", "belt_id": null, "kind": "impact_melt_nickel", "name": "impact melt-sheet nickel\u2013copper\u2013PGE (Sudbury type)", "tonnage_mt": 24.7143, "grades": {"Ni %": 1.7322, "Cu %": 1.5678, "Co %": 0.0325, "PGE g/t": 1.6614, "S %": 12.1528}, "depth_m": 1814, "blind": true, "strike_deg": 66, "dip_deg": 46, "length_m": 2532, "width_m": 158.9, "shape": "lens", "host": "primary_crust", "chance": 0.15, "seen_by": {"gravity": false, "magnetics": false, "em": false, "geochemistry": false}, "water_depth_m": 0, "crater_id": "TRF1-IMP-00205"}}, {"type": "Feature", "geometry": {"type": "Point", "coordinates": [-136.14595, -24.83597]}, "properties": {"id": "TRF1-INI-000205A-05", "district_id": "TRF1-INI-000205A", "belt_id": null, "kind": "impact_melt_nickel", "name": "impact melt-sheet nickel\u2013copper\u2013PGE (Sudbury type)", "tonnage_mt": 198.6197, "grades": {"Ni %": 1.1908, "Cu %": 0.6973, "Co %": 0.0166, "PGE g/t": 1.0094, "S %": 13.6867}, "depth_m": 1793, "blind": true, "strike_deg": 114, "dip_deg": 78, "length_m": 2693, "width_m": 270.1, "shape": "lens", "host": "primary_crust", "chance": 0.15, "seen_by": {"gravity": false, "magnetics": false, "em": false, "geochemistry": false}, "water_depth_m": 0, "crater_id": "TRF1-IMP-00205"}}, {"type": "Feature", "geometry": {"type": "Point", "coordinates": [-136.7927, -25.60073]}, "properties": {"id": "TRF1-INI-000205A-06", "district_id": "TRF1-INI-000205A", "belt_id": null, "kind": "impact_melt_nickel", "name": "impact melt-sheet nickel\u2013copper\u2013PGE (Sudbury type)", "tonnage_mt": 19.3335, "grades": {"Ni %": 2.3354, "Cu %": 0.8549, "Co %": 0.0189, "PGE g/t": 2.6172, "S %": 12.6697}, "depth_m": 2043, "blind": true, "strike_deg": 174, "dip_deg": 57, "length_m": 3591, "width_m": 172.4, "shape": "lens", "host": "primary_crust", "chance": 0.15, "seen_by": {"gravity": false, "magnetics": false, "em": false, "geochemistry": false}, "water_depth_m": 0, "crater_id": "TRF1-IMP-00205"}}, {"type": "Feature", "geometry": {"type": "Point", "coordinates": [-137.13378, -25.5643]}, "properties": {"id": "TRF1-INI-000205A-07", "district_id": "TRF1-INI-000205A", "belt_id": null, "kind": "impact_melt_nickel", "name": "impact melt-sheet nickel\u2013copper\u2013PGE (Sudbury type)", "tonnage_mt": 144.5143, "grades": {"Ni %": 0.8255, "Cu %": 2.1529, "Co %": 0.0336, "PGE g/t": 2.8222, "S %": 5.7934}, "depth_m": 1475, "blind": true, "strike_deg": 144, "dip_deg": 63, "length_m": 3176, "width_m": 149.7, "shape": "lens", "host": "primary_crust", "chance": 0.15, "seen_by": {"gravity": false, "magnetics": false, "em": false, "geochemistry": false}, "water_depth_m": 0, "crater_id": "TRF1-IMP-00205"}}, {"type": "Feature", "geometry": {"type": "Point", "coordinates": [-136.15238, -24.99613]}, "properties": {"id": "TRF1-INI-000205A-08", "district_id": "TRF1-INI-000205A", "belt_id": null, "kind": "impact_melt_nickel", "name": "impact melt-sheet nickel\u2013copper\u2013PGE (Sudbury type)", "tonnage_mt": 73.9587, "grades": {"Ni %": 0.9816, "Cu %": 0.8399, "Co %": 0.0105, "PGE g/t": 1.2792, "S %": 7.8996}, "depth_m": 1926, "blind": true, "strike_deg": 98, "dip_deg": 38, "length_m": 4202, "width_m": 144.1, "shape": "lens", "host": "primary_crust", "chance": 0.15, "seen_by": {"gravity": false, "magnetics": false, "em": false, "geochemistry": false}, "water_depth_m": 0, "crater_id": "TRF1-IMP-00205"}}, {"type": "Feature", "geometry": {"type": "Point", "coordinates": [-136.97374, -24.39083]}, "properties": {"id": "TRF1-INI-000205A-09", "district_id": "TRF1-INI-000205A", "belt_id": null, "kind": "impact_melt_nickel", "name": "impact melt-sheet nickel\u2013copper\u2013PGE (Sudbury type)", "tonnage_mt": 70.5959, "grades": {"Ni %": 1.9754, "Cu %": 0.8703, "Co %": 0.0459, "PGE g/t": 1.2609, "S %": 16.9575}, "depth_m": 1737, "blind": true, "strike_deg": 18, "dip_deg": 39, "length_m": 1853, "width_m": 118.5, "shape": "lens", "host": "primary_crust", "chance": 0.15, "seen_by": {"gravity": false, "magnetics": false, "em": false, "geochemistry": false}, "water_depth_m": 0, "crater_id": "TRF1-IMP-00205"}}, {"type": "Feature", "geometry": {"type": "Point", "coordinates": [-137.45777, -25.23377]}, "properties": {"id": "TRF1-INI-000205A-10", "district_id": "TRF1-INI-000205A", "belt_id": null, "kind": "impact_melt_nickel", "name": "impact melt-sheet nickel\u2013copper\u2013PGE (Sudbury type)", "tonnage_mt": 165.3249, "grades": {"Ni %": 2.5722, "Cu %": 0.6274, "Co %": 0.0198, "PGE g/t": 1.144, "S %": 10.0917}, "depth_m": 1615, "blind": true, "strike_deg": 104, "dip_deg": 56, "length_m": 5137, "width_m": 150.6, "shape": "lens", "host": "primary_crust", "chance": 0.15, "seen_by": {"gravity": false, "magnetics": false, "em": false, "geochemistry": false}, "water_depth_m": 0, "crater_id": "TRF1-IMP-00205"}}, {"type": "Feature", "geometry": {"type": "Point", "coordinates": [-137.3415, -25.16193]}, "properties": {"id": "TRF1-INI-000205A-11", "district_id": "TRF1-INI-000205A", "belt_id": null, "kind": "impact_melt_nickel", "name": "impact melt-sheet nickel\u2013copper\u2013PGE (Sudbury type)", "tonnage_mt": 69.1579, "grades": {"Ni %": 1.0866, "Cu %": 1.4029, "Co %": 0.0681, "PGE g/t": 1.2768, "S %": 12.8262}, "depth_m": 1782, "blind": true, "strike_deg": 100, "dip_deg": 40, "length_m": 2140, "width_m": 239.7, "shape": "lens", "host": "primary_crust", "chance": 0.15, "seen_by": {"gravity": false, "magnetics": false, "em": false, "geochemistry": false}, "water_depth_m": 0, "crater_id": "TRF1-IMP-00205"}}, {"type": "Feature", "geometry": {"type": "Point", "coordinates": [-136.38575, -25.47174]}, "properties": {"id": "TRF1-INI-000205A-12", "district_id": "TRF1-INI-000205A", "belt_id": null, "kind": "impact_melt_nickel", "name": "impact melt-sheet nickel\u2013copper\u2013PGE (Sudbury type)", "tonnage_mt": 303.5899, "grades": {"Ni %": 1.8706, "Cu %": 1.1553, "Co %": 0.0362, "PGE g/t": 2.065, "S %": 14.8968}, "depth_m": 1990, "blind": true, "strike_deg": 38, "dip_deg": 32, "length_m": 2180, "width_m": 235.3, "shape": "lens", "host": "primary_crust", "chance": 0.15, "seen_by": {"gravity": false, "magnetics": false, "em": false, "geochemistry": false}, "water_depth_m": 0, "crater_id": "TRF1-IMP-00205"}}, {"type": "Feature", "geometry": {"type": "Point", "coordinates": [-136.95161, -24.40773]}, "properties": {"id": "TRF1-INI-000205A-13", "district_id": "TRF1-INI-000205A", "belt_id": null, "kind": "impact_melt_nickel", "name": "impact melt-sheet nickel\u2013copper\u2013PGE (Sudbury type)", "tonnage_mt": 9.61, "grades": {"Ni %": 1.5908, "Cu %": 0.7567, "Co %": 0.0759, "PGE g/t": 1.2383, "S %": 8.5245}, "depth_m": 1709, "blind": true, "strike_deg": 17, "dip_deg": 60, "length_m": 2595, "width_m": 242.4, "shape": "lens", "host": "primary_crust", "chance": 0.15, "seen_by": {"gravity": false, "magnetics": false, "em": false, "geochemistry": false}, "water_depth_m": 0, "crater_id": "TRF1-IMP-00205"}}, {"type": "Feature", "geometry": {"type": "Point", "coordinates": [-137.3635, -25.32657]}, "properties": {"id": "TRF1-INI-000205A-14", "district_id": "TRF1-INI-000205A", "belt_id": null, "kind": "impact_melt_nickel", "name": "impact melt-sheet nickel\u2013copper\u2013PGE (Sudbury type)", "tonnage_mt": 293.1542, "grades": {"Ni %": 1.0956, "Cu %": 1.1159, "Co %": 0.038, "PGE g/t": 2.011, "S %": 9.0057}, "depth_m": 1789, "blind": true, "strike_deg": 114, "dip_deg": 45, "length_m": 1878, "width_m": 249.9, "shape": "lens", "host": "primary_crust", "chance": 0.15, "seen_by": {"gravity": false, "magnetics": false, "em": false, "geochemistry": false}, "water_depth_m": 0, "crater_id": "TRF1-IMP-00205"}}, {"type": "Feature", "geometry": {"type": "Point", "coordinates": [-137.14547, -25.6886]}, "properties": {"id": "TRF1-INI-000205A-15", "district_id": "TRF1-INI-000205A", "belt_id": null, "kind": "impact_melt_nickel", "name": "impact melt-sheet nickel\u2013copper\u2013PGE (Sudbury type)", "tonnage_mt": 145.9437, "grades": {"Ni %": 1.9455, "Cu %": 1.1975, "Co %": 0.0396, "PGE g/t": 1.1767, "S %": 8.9814}, "depth_m": 1738, "blind": true, "strike_deg": 149, "dip_deg": 72, "length_m": 2308, "width_m": 109.6, "shape": "lens", "host": "primary_crust", "chance": 0.15, "seen_by": {"gravity": false, "magnetics": false, "em": false, "geochemistry": false}, "water_depth_m": 0, "crater_id": "TRF1-IMP-00205"}}, {"type": "Feature", "geometry": {"type": "Point", "coordinates": [-136.96595, -25.61032]}, "properties": {"id": "TRF1-INI-000205A-16", "district_id": "TRF1-INI-000205A", "belt_id": null, "kind": "impact_melt_nickel", "name": "impact melt-sheet nickel\u2013copper\u2013PGE (Sudbury type)", "tonnage_mt": 22.3235, "grades": {"Ni %": 1.2951, "Cu %": 0.7955, "Co %": 0.021, "PGE g/t": 0.685, "S %": 11.1625}, "depth_m": 1544, "blind": true, "strike_deg": 159, "dip_deg": 41, "length_m": 2797, "width_m": 246.9, "shape": "lens", "host": "primary_crust", "chance": 0.15, "seen_by": {"gravity": false, "magnetics": false, "em": false, "geochemistry": false}, "water_depth_m": 0, "crater_id": "TRF1-IMP-00205"}}, {"type": "Feature", "geometry": {"type": "Point", "coordinates": [-65.79934, 16.32931]}, "properties": {"id": "TRF1-INI-000366A-01", "district_id": "TRF1-INI-000366A", "belt_id": null, "kind": "impact_melt_nickel", "name": "impact melt-sheet nickel\u2013copper\u2013PGE (Sudbury type)", "tonnage_mt": 82.4379, "grades": {"Ni %": 1.1144, "Cu %": 1.2741, "Co %": 0.0391, "PGE g/t": 1.7538, "S %": 10.2227}, "depth_m": 1232, "blind": true, "strike_deg": 161, "dip_deg": 33, "length_m": 3004, "width_m": 267.2, "shape": "lens", "host": "intercrater_plains", "chance": 0.15, "seen_by": {"gravity": false, "magnetics": false, "em": false, "geochemistry": false}, "water_depth_m": 0, "crater_id": "TRF1-IMP-00366"}}, {"type": "Feature", "geometry": {"type": "Point", "coordinates": [-65.84299, 16.42781]}, "properties": {"id": "TRF1-INI-000366A-02", "district_id": "TRF1-INI-000366A", "belt_id": null, "kind": "impact_melt_nickel", "name": "impact melt-sheet nickel\u2013copper\u2013PGE (Sudbury type)", "tonnage_mt": 13.7228, "grades": {"Ni %": 2.0025, "Cu %": 1.3647, "Co %": 0.0416, "PGE g/t": 1.7457, "S %": 14.3168}, "depth_m": 1400, "blind": true, "strike_deg": 168, "dip_deg": 73, "length_m": 3490, "width_m": 286.0, "shape": "lens", "host": "intercrater_plains", "chance": 0.15, "seen_by": {"gravity": false, "magnetics": false, "em": false, "geochemistry": false}, "water_depth_m": 0, "crater_id": "TRF1-IMP-00366"}}, {"type": "Feature", "geometry": {"type": "Point", "coordinates": [-66.43753, 15.68602]}, "properties": {"id": "TRF1-INI-000366A-03", "district_id": "TRF1-INI-000366A", "belt_id": null, "kind": "impact_melt_nickel", "name": "impact melt-sheet nickel\u2013copper\u2013PGE (Sudbury type)", "tonnage_mt": 25.8541, "grades": {"Ni %": 1.3194, "Cu %": 0.8321, "Co %": 0.0495, "PGE g/t": 0.9441, "S %": 16.3548}, "depth_m": 1461, "blind": true, "strike_deg": 110, "dip_deg": 55, "length_m": 4158, "width_m": 178.5, "shape": "lens", "host": "intercrater_plains", "chance": 0.15, "seen_by": {"gravity": false, "magnetics": false, "em": false, "geochemistry": false}, "water_depth_m": 0, "crater_id": "TRF1-IMP-00366"}}, {"type": "Feature", "geometry": {"type": "Point", "coordinates": [-65.57814, 15.4211]}, "properties": {"id": "TRF1-INI-000366A-04", "district_id": "TRF1-INI-000366A", "belt_id": null, "kind": "impact_melt_nickel", "name": "impact melt-sheet nickel\u2013copper\u2013PGE (Sudbury type)", "tonnage_mt": 10.3084, "grades": {"Ni %": 0.6933, "Cu %": 0.7321, "Co %": 0.0362, "PGE g/t": 2.0601, "S %": 19.4417}, "depth_m": 1356, "blind": true, "strike_deg": 41, "dip_deg": 42, "length_m": 1824, "width_m": 205.4, "shape": "lens", "host": "intercrater_plains", "chance": 0.15, "seen_by": {"gravity": false, "magnetics": false, "em": false, "geochemistry": false}, "water_depth_m": 0, "crater_id": "TRF1-IMP-00366"}}, {"type": "Feature", "geometry": {"type": "Point", "coordinates": [-66.47122, 15.74697]}, "properties": {"id": "TRF1-INI-000366A-05", "district_id": "TRF1-INI-000366A", "belt_id": null, "kind": "impact_melt_nickel", "name": "impact melt-sheet nickel\u2013copper\u2013PGE (Sudbury type)", "tonnage_mt": 187.3126, "grades": {"Ni %": 1.2917, "Cu %": 0.9606, "Co %": 0.023, "PGE g/t": 2.1768, "S %": 9.2433}, "depth_m": 1195, "blind": true, "strike_deg": 102, "dip_deg": 54, "length_m": 3971, "width_m": 243.2, "shape": "lens", "host": "intercrater_plains", "chance": 0.15, "seen_by": {"gravity": false, "magnetics": false, "em": false, "geochemistry": false}, "water_depth_m": 0, "crater_id": "TRF1-IMP-00366"}}, {"type": "Feature", "geometry": {"type": "Point", "coordinates": [-66.47345, 16.01735]}, "properties": {"id": "TRF1-INI-000366A-06", "district_id": "TRF1-INI-000366A", "belt_id": null, "kind": "impact_melt_nickel", "name": "impact melt-sheet nickel\u2013copper\u2013PGE (Sudbury type)", "tonnage_mt": 19.8613, "grades": {"Ni %": 1.1577, "Cu %": 0.7939, "Co %": 0.0334, "PGE g/t": 1.5447, "S %": 12.1584}, "depth_m": 1720, "blind": true, "strike_deg": 71, "dip_deg": 63, "length_m": 3519, "width_m": 115.8, "shape": "lens", "host": "intercrater_plains", "chance": 0.15, "seen_by": {"gravity": false, "magnetics": false, "em": false, "geochemistry": false}, "water_depth_m": 0, "crater_id": "TRF1-IMP-00366"}}, {"type": "Feature", "geometry": {"type": "Point", "coordinates": [-65.48791, 15.58698]}, "properties": {"id": "TRF1-INI-000366A-07", "district_id": "TRF1-INI-000366A", "belt_id": null, "kind": "impact_melt_nickel", "name": "impact melt-sheet nickel\u2013copper\u2013PGE (Sudbury type)", "tonnage_mt": 90.1005, "grades": {"Ni %": 0.7382, "Cu %": 1.1102, "Co %": 0.055, "PGE g/t": 1.3957, "S %": 10.497}, "depth_m": 1125, "blind": true, "strike_deg": 60, "dip_deg": 57, "length_m": 5450, "width_m": 191.9, "shape": "lens", "host": "intercrater_plains", "chance": 0.15, "seen_by": {"gravity": false, "magnetics": false, "em": false, "geochemistry": false}, "water_depth_m": 0, "crater_id": "TRF1-IMP-00366"}}, {"type": "Feature", "geometry": {"type": "Point", "coordinates": [-65.40323, 15.91839]}, "properties": {"id": "TRF1-INI-000366A-08", "district_id": "TRF1-INI-000366A", "belt_id": null, "kind": "impact_melt_nickel", "name": "impact melt-sheet nickel\u2013copper\u2013PGE (Sudbury type)", "tonnage_mt": 109.0981, "grades": {"Ni %": 0.8677, "Cu %": 1.0481, "Co %": 0.0395, "PGE g/t": 1.9859, "S %": 6.9396}, "depth_m": 1362, "blind": true, "strike_deg": 97, "dip_deg": 65, "length_m": 2313, "width_m": 173.0, "shape": "lens", "host": "intercrater_plains", "chance": 0.15, "seen_by": {"gravity": false, "magnetics": false, "em": false, "geochemistry": false}, "water_depth_m": 0, "crater_id": "TRF1-IMP-00366"}}, {"type": "Feature", "geometry": {"type": "Point", "coordinates": [-66.4631, 15.74749]}, "properties": {"id": "TRF1-INI-000366A-09", "district_id": "TRF1-INI-000366A", "belt_id": null, "kind": "impact_melt_nickel", "name": "impact melt-sheet nickel\u2013copper\u2013PGE (Sudbury type)", "tonnage_mt": 58.2329, "grades": {"Ni %": 1.4448, "Cu %": 2.0464, "Co %": 0.0386, "PGE g/t": 0.8105, "S %": 16.0511}, "depth_m": 1371, "blind": true, "strike_deg": 102, "dip_deg": 59, "length_m": 2154, "width_m": 347.4, "shape": "lens", "host": "intercrater_plains", "chance": 0.15, "seen_by": {"gravity": false, "magnetics": false, "em": false, "geochemistry": false}, "water_depth_m": 0, "crater_id": "TRF1-IMP-00366"}}, {"type": "Feature", "geometry": {"type": "Point", "coordinates": [-65.96857, 15.32869]}, "properties": {"id": "TRF1-INI-000366A-10", "district_id": "TRF1-INI-000366A", "belt_id": null, "kind": "impact_melt_nickel", "name": "impact melt-sheet nickel\u2013copper\u2013PGE (Sudbury type)", "tonnage_mt": 20.8301, "grades": {"Ni %": 1.1179, "Cu %": 1.5406, "Co %": 0.0425, "PGE g/t": 1.5609, "S %": 14.3622}, "depth_m": 1399, "blind": true, "strike_deg": 180, "dip_deg": 47, "length_m": 2014, "width_m": 168.2, "shape": "lens", "host": "intercrater_plains", "chance": 0.15, "seen_by": {"gravity": false, "magnetics": false, "em": false, "geochemistry": false}, "water_depth_m": 0, "crater_id": "TRF1-IMP-00366"}}, {"type": "Feature", "geometry": {"type": "Point", "coordinates": [-65.48788, 15.6893]}, "properties": {"id": "TRF1-INI-000366A-11", "district_id": "TRF1-INI-000366A", "belt_id": null, "kind": "impact_melt_nickel", "name": "impact melt-sheet nickel\u2013copper\u2013PGE (Sudbury type)", "tonnage_mt": 63.042, "grades": {"Ni %": 1.5882, "Cu %": 0.7568, "Co %": 0.0313, "PGE g/t": 1.2264, "S %": 7.2177}, "depth_m": 1145, "blind": true, "strike_deg": 71, "dip_deg": 71, "length_m": 4038, "width_m": 145.0, "shape": "lens", "host": "intercrater_plains", "chance": 0.15, "seen_by": {"gravity": false, "magnetics": false, "em": false, "geochemistry": false}, "water_depth_m": 0, "crater_id": "TRF1-IMP-00366"}}, {"type": "Feature", "geometry": {"type": "Point", "coordinates": [-66.25192, 15.52335]}, "properties": {"id": "TRF1-INI-000366A-12", "district_id": "TRF1-INI-000366A", "belt_id": null, "kind": "impact_melt_nickel", "name": "impact melt-sheet nickel\u2013copper\u2013PGE (Sudbury type)", "tonnage_mt": 35.8462, "grades": {"Ni %": 0.541, "Cu %": 0.8942, "Co %": 0.0557, "PGE g/t": 1.8915, "S %": 15.2924}, "depth_m": 1613, "blind": true, "strike_deg": 140, "dip_deg": 71, "length_m": 4561, "width_m": 300.3, "shape": "lens", "host": "intercrater_plains", "chance": 0.15, "seen_by": {"gravity": false, "magnetics": false, "em": false, "geochemistry": false}, "water_depth_m": 0, "crater_id": "TRF1-IMP-00366"}}, {"type": "Feature", "geometry": {"type": "Point", "coordinates": [167.14652, -25.0645]}, "properties": {"id": "TRF1-INI-000524A-01", "district_id": "TRF1-INI-000524A", "belt_id": null, "kind": "impact_melt_nickel", "name": "impact melt-sheet nickel\u2013copper\u2013PGE (Sudbury type)", "tonnage_mt": 49.9387, "grades": {"Ni %": 2.2067, "Cu %": 0.7717, "Co %": 0.0634, "PGE g/t": 1.5941, "S %": 9.9266}, "depth_m": 1572, "blind": true, "strike_deg": 176, "dip_deg": 76, "length_m": 2612, "width_m": 345.1, "shape": "lens", "host": "intercrater_plains", "chance": 0.15, "seen_by": {"gravity": false, "magnetics": false, "em": false, "geochemistry": false}, "water_depth_m": 0, "crater_id": "TRF1-IMP-00524"}}, {"type": "Feature", "geometry": {"type": "Point", "coordinates": [166.71822, -24.8367]}, "properties": {"id": "TRF1-INI-000524A-02", "district_id": "TRF1-INI-000524A", "belt_id": null, "kind": "impact_melt_nickel", "name": "impact melt-sheet nickel\u2013copper\u2013PGE (Sudbury type)", "tonnage_mt": 135.851, "grades": {"Ni %": 2.7791, "Cu %": 1.2237, "Co %": 0.041, "PGE g/t": 1.0152, "S %": 15.3591}, "depth_m": 1112, "blind": true, "strike_deg": 118, "dip_deg": 49, "length_m": 4102, "width_m": 124.5, "shape": "lens", "host": "intercrater_plains", "chance": 0.15, "seen_by": {"gravity": false, "magnetics": false, "em": false, "geochemistry": false}, "water_depth_m": 0, "crater_id": "TRF1-IMP-00524"}}, {"type": "Feature", "geometry": {"type": "Point", "coordinates": [166.78271, -24.97781]}, "properties": {"id": "TRF1-INI-000524A-03", "district_id": "TRF1-INI-000524A", "belt_id": null, "kind": "impact_melt_nickel", "name": "impact melt-sheet nickel\u2013copper\u2013PGE (Sudbury type)", "tonnage_mt": 12.2798, "grades": {"Ni %": 1.3357, "Cu %": 1.5704, "Co %": 0.0413, "PGE g/t": 1.8121, "S %": 13.1358}, "depth_m": 1200, "blind": true, "strike_deg": 136, "dip_deg": 56, "length_m": 3909, "width_m": 177.8, "shape": "lens", "host": "intercrater_plains", "chance": 0.15, "seen_by": {"gravity": false, "magnetics": false, "em": false, "geochemistry": false}, "water_depth_m": 0, "crater_id": "TRF1-IMP-00524"}}, {"type": "Feature", "geometry": {"type": "Point", "coordinates": [167.16105, -24.23175]}, "properties": {"id": "TRF1-INI-000524A-04", "district_id": "TRF1-INI-000524A", "belt_id": null, "kind": "impact_melt_nickel", "name": "impact melt-sheet nickel\u2013copper\u2013PGE (Sudbury type)", "tonnage_mt": 79.2812, "grades": {"Ni %": 1.6844, "Cu %": 0.8406, "Co %": 0.0299, "PGE g/t": 1.5706, "S %": 17.2244}, "depth_m": 1184, "blind": true, "strike_deg": 3, "dip_deg": 45, "length_m": 2702, "width_m": 294.3, "shape": "lens", "host": "intercrater_plains", "chance": 0.15, "seen_by": {"gravity": false, "magnetics": false, "em": false, "geochemistry": false}, "water_depth_m": 0, "crater_id": "TRF1-IMP-00524"}}, {"type": "Feature", "geometry": {"type": "Point", "coordinates": [166.7925, -24.9995]}, "properties": {"id": "TRF1-INI-000524A-05", "district_id": "TRF1-INI-000524A", "belt_id": null, "kind": "impact_melt_nickel", "name": "impact melt-sheet nickel\u2013copper\u2013PGE (Sudbury type)", "tonnage_mt": 72.0127, "grades": {"Ni %": 1.2, "Cu %": 0.6106, "Co %": 0.051, "PGE g/t": 1.4867, "S %": 8.7277}, "depth_m": 1040, "blind": true, "strike_deg": 138, "dip_deg": 48, "length_m": 1108, "width_m": 290.5, "shape": "lens", "host": "intercrater_plains", "chance": 0.15, "seen_by": {"gravity": false, "magnetics": false, "em": false, "geochemistry": false}, "water_depth_m": 0, "crater_id": "TRF1-IMP-00524"}}, {"type": "Feature", "geometry": {"type": "Point", "coordinates": [166.73449, -24.45383]}, "properties": {"id": "TRF1-INI-000524A-06", "district_id": "TRF1-INI-000524A", "belt_id": null, "kind": "impact_melt_nickel", "name": "impact melt-sheet nickel\u2013copper\u2013PGE (Sudbury type)", "tonnage_mt": 92.866, "grades": {"Ni %": 1.7274, "Cu %": 1.0827, "Co %": 0.0394, "PGE g/t": 1.1399, "S %": 12.0253}, "depth_m": 1317, "blind": true, "strike_deg": 69, "dip_deg": 47, "length_m": 2074, "width_m": 259.5, "shape": "lens", "host": "intercrater_plains", "chance": 0.15, "seen_by": {"gravity": false, "magnetics": false, "em": false, "geochemistry": false}, "water_depth_m": 0, "crater_id": "TRF1-IMP-00524"}}, {"type": "Feature", "geometry": {"type": "Point", "coordinates": [167.64898, -24.78614]}, "properties": {"id": "TRF1-INI-000524A-07", "district_id": "TRF1-INI-000524A", "belt_id": null, "kind": "impact_melt_nickel", "name": "impact melt-sheet nickel\u2013copper\u2013PGE (Sudbury type)", "tonnage_mt": 36.4568, "grades": {"Ni %": 0.9789, "Cu %": 0.7721, "Co %": 0.0271, "PGE g/t": 2.1001, "S %": 8.8924}, "depth_m": 1341, "blind": true, "strike_deg": 67, "dip_deg": 72, "length_m": 5430, "width_m": 181.8, "shape": "lens", "host": "intercrater_plains", "chance": 0.15, "seen_by": {"gravity": false, "magnetics": false, "em": false, "geochemistry": false}, "water_depth_m": 0, "crater_id": "TRF1-IMP-00524"}}, {"type": "Feature", "geometry": {"type": "Point", "coordinates": [166.67774, -24.8088]}, "properties": {"id": "TRF1-INI-000524A-08", "district_id": "TRF1-INI-000524A", "belt_id": null, "kind": "impact_melt_nickel", "name": "impact melt-sheet nickel\u2013copper\u2013PGE (Sudbury type)", "tonnage_mt": 36.5223, "grades": {"Ni %": 1.3459, "Cu %": 0.5828, "Co %": 0.0484, "PGE g/t": 1.5857, "S %": 7.2384}, "depth_m": 1373, "blind": true, "strike_deg": 114, "dip_deg": 56, "length_m": 2049, "width_m": 215.6, "shape": "lens", "host": "intercrater_plains", "chance": 0.15, "seen_by": {"gravity": false, "magnetics": false, "em": false, "geochemistry": false}, "water_depth_m": 0, "crater_id": "TRF1-IMP-00524"}}, {"type": "Feature", "geometry": {"type": "Point", "coordinates": [166.99349, -25.08084]}, "properties": {"id": "TRF1-INI-000524A-09", "district_id": "TRF1-INI-000524A", "belt_id": null, "kind": "impact_melt_nickel", "name": "impact melt-sheet nickel\u2013copper\u2013PGE (Sudbury type)", "tonnage_mt": 50.5287, "grades": {"Ni %": 2.567, "Cu %": 1.6669, "Co %": 0.0462, "PGE g/t": 1.491, "S %": 13.0567}, "depth_m": 1331, "blind": true, "strike_deg": 160, "dip_deg": 68, "length_m": 2495, "width_m": 205.4, "shape": "lens", "host": "intercrater_plains", "chance": 0.15, "seen_by": {"gravity": false, "magnetics": false, "em": false, "geochemistry": false}, "water_depth_m": 0, "crater_id": "TRF1-IMP-00524"}}, {"type": "Feature", "geometry": {"type": "Point", "coordinates": [166.79478, -24.30107]}, "properties": {"id": "TRF1-INI-000524A-10", "district_id": "TRF1-INI-000524A", "belt_id": null, "kind": "impact_melt_nickel", "name": "impact melt-sheet nickel\u2013copper\u2013PGE (Sudbury type)", "tonnage_mt": 34.1864, "grades": {"Ni %": 1.2789, "Cu %": 1.3205, "Co %": 0.0421, "PGE g/t": 0.9247, "S %": 15.7302}, "depth_m": 1312, "blind": true, "strike_deg": 49, "dip_deg": 53, "length_m": 2310, "width_m": 263.4, "shape": "lens", "host": "intercrater_plains", "chance": 0.15, "seen_by": {"gravity": false, "magnetics": false, "em": false, "geochemistry": false}, "water_depth_m": 0, "crater_id": "TRF1-IMP-00524"}}, {"type": "Feature", "geometry": {"type": "Point", "coordinates": [166.63502, -24.63535]}, "properties": {"id": "TRF1-INI-000524A-11", "district_id": "TRF1-INI-000524A", "belt_id": null, "kind": "impact_melt_nickel", "name": "impact melt-sheet nickel\u2013copper\u2013PGE (Sudbury type)", "tonnage_mt": 14.7527, "grades": {"Ni %": 1.512, "Cu %": 0.8312, "Co %": 0.0248, "PGE g/t": 1.9319, "S %": 13.7914}, "depth_m": 1270, "blind": true, "strike_deg": 93, "dip_deg": 35, "length_m": 2432, "width_m": 296.4, "shape": "lens", "host": "intercrater_plains", "chance": 0.15, "seen_by": {"gravity": false, "magnetics": false, "em": false, "geochemistry": false}, "water_depth_m": 0, "crater_id": "TRF1-IMP-00524"}}, {"type": "Feature", "geometry": {"type": "Point", "coordinates": [166.73475, -24.70634]}, "properties": {"id": "TRF1-INI-000524A-12", "district_id": "TRF1-INI-000524A", "belt_id": null, "kind": "impact_melt_nickel", "name": "impact melt-sheet nickel\u2013copper\u2013PGE (Sudbury type)", "tonnage_mt": 57.922, "grades": {"Ni %": 2.6453, "Cu %": 2.0552, "Co %": 0.0439, "PGE g/t": 1.249, "S %": 16.8869}, "depth_m": 1140, "blind": true, "strike_deg": 104, "dip_deg": 69, "length_m": 4145, "width_m": 243.9, "shape": "lens", "host": "intercrater_plains", "chance": 0.15, "seen_by": {"gravity": false, "magnetics": false, "em": false, "geochemistry": false}, "water_depth_m": 0, "crater_id": "TRF1-IMP-00524"}}, {"type": "Feature", "geometry": {"type": "Point", "coordinates": [167.301, -24.98433]}, "properties": {"id": "TRF1-INI-000524A-13", "district_id": "TRF1-INI-000524A", "belt_id": null, "kind": "impact_melt_nickel", "name": "impact melt-sheet nickel\u2013copper\u2013PGE (Sudbury type)", "tonnage_mt": 13.633, "grades": {"Ni %": 1.3514, "Cu %": 1.3898, "Co %": 0.0319, "PGE g/t": 2.596, "S %": 6.9375}, "depth_m": 1215, "blind": true, "strike_deg": 16, "dip_deg": 49, "length_m": 3148, "width_m": 224.7, "shape": "lens", "host": "intercrater_plains", "chance": 0.15, "seen_by": {"gravity": false, "magnetics": false, "em": false, "geochemistry": false}, "water_depth_m": 0, "crater_id": "TRF1-IMP-00524"}}, {"type": "Feature", "geometry": {"type": "Point", "coordinates": [166.6625, -24.82867]}, "properties": {"id": "TRF1-INI-000524A-14", "district_id": "TRF1-INI-000524A", "belt_id": null, "kind": "impact_melt_nickel", "name": "impact melt-sheet nickel\u2013copper\u2013PGE (Sudbury type)", "tonnage_mt": 435.1361, "grades": {"Ni %": 0.6873, "Cu %": 0.8976, "Co %": 0.0358, "PGE g/t": 2.0772, "S %": 12.9648}, "depth_m": 1142, "blind": true, "strike_deg": 115, "dip_deg": 54, "length_m": 2156, "width_m": 302.1, "shape": "lens", "host": "intercrater_plains", "chance": 0.15, "seen_by": {"gravity": false, "magnetics": false, "em": false, "geochemistry": false}, "water_depth_m": 0, "crater_id": "TRF1-IMP-00524"}}]}